{
    "links": {
        "self": "http://www.neowsapp.com/rest/v1/neo/3684348?api_key=iIulBulltgU6a56xZRHN4H3l9WmuAYTsLGpBGhQ2"
    },
    "id": "3684348",
    "neo_reference_id": "3684348",
    "name": "(2014 QN362)",
    "designation": "2014 QN362",
    "nasa_jpl_url": "http://ssd.jpl.nasa.gov/sbdb.cgi?sstr=3684348",
    "absolute_magnitude_h": 26.5,
    "estimated_diameter": {
        "kilometers": {
            "estimated_diameter_min": 0.0133215567,
            "estimated_diameter_max": 0.0297879063
        },
        "meters": {
            "estimated_diameter_min": 13.3215566698,
            "estimated_diameter_max": 29.7879062798
        },
        "miles": {
            "estimated_diameter_min": 0.008277629,
            "estimated_diameter_max": 0.0185093411
        },
        "feet": {
            "estimated_diameter_min": 43.7058959846,
            "estimated_diameter_max": 97.7293544391
        }
    },
    "is_potentially_hazardous_asteroid": false,
    "close_approach_data": [
        {
            "close_approach_date": "1975-09-07",
            "close_approach_date_full": "1975-Sep-07 18:43",
            "epoch_date_close_approach": 179347380000,
            "relative_velocity": {
                "kilometers_per_second": "24.1063713728",
                "kilometers_per_hour": "86782.9369420256",
                "miles_per_hour": "53923.5421237825"
            },
            "miss_distance": {
                "astronomical": "0.4984563315",
                "lunar": "193.8995129535",
                "kilometers": "74568005.480413905",
                "miles": "46334410.050385689"
            },
            "orbiting_body": "Earth"
        },
        {
            "close_approach_date": "2009-02-11",
            "close_approach_date_full": "2009-Feb-11 16:29",
            "epoch_date_close_approach": 1234369740000,
            "relative_velocity": {
                "kilometers_per_second": "22.2487767909",
                "kilometers_per_hour": "80095.5964471507",
                "miles_per_hour": "49768.2888035087"
            },
            "miss_distance": {
                "astronomical": "0.4277320273",
                "lunar": "166.3877586197",
                "kilometers": "63987800.214861851",
                "miles": "39760175.3496855038"
            },
            "orbiting_body": "Earth"
        },
        {
            "close_approach_date": "2010-07-22",
            "close_approach_date_full": "2010-Jul-22 10:59",
            "epoch_date_close_approach": 1279796340000,
            "relative_velocity": {
                "kilometers_per_second": "3.4213011505",
                "kilometers_per_hour": "12316.6841416685",
                "miles_per_hour": "7653.1085434717"
            },
            "miss_distance": {
                "astronomical": "0.0928443903",
                "lunar": "36.1164678267",
                "kilometers": "13889323.030328661",
                "miles": "8630425.1329150818"
            },
            "orbiting_body": "Venus"
        },
        {
            "close_approach_date": "2014-08-14",
            "close_approach_date_full": "2014-Aug-14 15:42",
            "epoch_date_close_approach": 1408030920000,
            "relative_velocity": {
                "kilometers_per_second": "9.9442493309",
                "kilometers_per_hour": "35799.2975910663",
                "miles_per_hour": "22244.2913281823"
            },
            "miss_distance": {
                "astronomical": "0.0177284941",
                "lunar": "6.8963842049",
                "kilometers": "2652144.955667567",
                "miles": "1647966.4582317446"
            },
            "orbiting_body": "Earth"
        },
        {
            "close_approach_date": "2022-02-14",
            "close_approach_date_full": "2022-Feb-14 00:57",
            "epoch_date_close_approach": 1644800220000,
            "relative_velocity": {
                "kilometers_per_second": "21.357034975",
                "kilometers_per_hour": "76885.3259098664",
                "miles_per_hour": "47773.5515354945"
            },
            "miss_distance": {
                "astronomical": "0.3989111538",
                "lunar": "155.1764388282",
                "kilometers": "59676258.927722406",
                "miles": "37081107.8238689628"
            },
            "orbiting_body": "Earth"
        }
    ],
    "orbital_data": {
        "orbit_id": "3",
        "orbit_determination_date": "2017-04-06 08:39:05",
        "first_observation_date": "2014-08-22",
        "last_observation_date": "2014-08-30",
        "data_arc_in_days": 8,
        "observations_used": 14,
        "orbit_uncertainty": "8",
        "minimum_orbit_intersection": ".000390909",
        "jupiter_tisserand_invariant": "5.270",
        "epoch_osculation": "2456893.5",
        "eccentricity": ".3168277510626026",
        "semi_major_axis": "1.192734659730012",
        "inclination": "2.820013665279367",
        "ascending_node_longitude": "139.9073757059905",
        "orbital_period": "475.7887690049492",
        "perihelion_distance": ".8148432198733341",
        "perihelion_argument": "101.1685340915374",
        "aphelion_distance": "1.570626099586691",
        "perihelion_time": "2456823.563587919907",
        "mean_anomaly": "52.91656715959932",
        "mean_motion": ".7566382887786391",
        "equinox": "J2000",
        "orbit_class": {
            "orbit_class_type": "APO",
            "orbit_class_description": "Near-Earth asteroid orbits which cross the Earth’s orbit similar to that of 1862 Apollo",
            "orbit_class_range": "a (semi-major axis) > 1.0 AU; q (perihelion) < 1.017 AU"
        }
    },
    "is_sentry_object": false
}